[
    {
        "CCSDS_OMM_VERS": "3.0",
        "COMMENT": "GENERATED VIA SPACE-TRACK.ORG API",
        "CREATION_DATE": "2025-05-02T17:35:09",
        "ORIGINATOR": "18 SPCS",
        "OBJECT_NAME": "GALILEO 27 (223)",
        "OBJECT_ID": "2021-116A",
        "CENTER_NAME": "EARTH",
        "REF_FRAME": "TEME",
        "TIME_SYSTEM": "UTC",
        "MEAN_ELEMENT_THEORY": "SGP4",
        "EPOCH": "2025-05-02T02:01:18.413760",
        "MEAN_MOTION": "1.70475455",
        "ECCENTRICITY": "0.00004630",
        "INCLINATION": "57.2679",
        "RA_OF_ASC_NODE": "352.7716",
        "ARG_OF_PERICENTER": "227.9547",
        "MEAN_ANOMALY": "308.9160",
        "EPHEMERIS_TYPE": "0",
        "CLASSIFICATION_TYPE": "U",
        "NORAD_CAT_ID": "49809",
        "ELEMENT_SET_NO": "999",
        "REV_AT_EPOCH": "2117",
        "BSTAR": "0.00000000000000",
        "MEAN_MOTION_DOT": "-0.00000098",
        "MEAN_MOTION_DDOT": "0.0000000000000",
        "SEMIMAJOR_AXIS": "29600.152",
        "PERIOD": "844.696",
        "APOAPSIS": "23223.387",
        "PERIAPSIS": "23220.646",
        "OBJECT_TYPE": "PAYLOAD",
        "RCS_SIZE": "LARGE",
        "COUNTRY_CODE": "ESA",
        "LAUNCH_DATE": "2021-12-05",
        "SITE": "FRGUI",
        "DECAY_DATE": null,
        "FILE": "4716995",
        "GP_ID": "286683280",
        "TLE_LINE0": "0 GALILEO 27 (223)",
        "TLE_LINE1": "1 49809U 21116A   25122.08424090 -.00000098  00000-0  00000-0 0  9998",
        "TLE_LINE2": "2 49809  57.2679 352.7716 0000463 227.9547 308.9160  1.70475455 21174"
    }
]